[{"OBJECT_NAME":"STARLINK-11154 [DTC]","OBJECT_ID":"2024-164K","EPOCH":"2026-03-09T22:22:14.057760","MEAN_MOTION":15.69695265,"ECCENTRICITY":9.502e-5,"INCLINATION":53.1593,"RA_OF_ASC_NODE":310.316,"ARG_OF_PERICENTER":63.263,"MEAN_ANOMALY":296.8485,"EPHEMERIS_TYPE":0,"CLASSIFICATION_TYPE":"U","NORAD_CAT_ID":61059,"ELEMENT_SET_NO":999,"REV_AT_EPOCH":8545,"BSTAR":3.98823e-6,"MEAN_MOTION_DOT":-1.05e-6,"MEAN_MOTION_DDOT":0},{"OBJECT_NAME":"LOGSATS","OBJECT_ID":"2025-009CJ","EPOCH":"2026-03-09T17:25:39.487008","MEAN_MOTION":15.72310294,"ECCENTRICITY":0.00053927,"INCLINATION":97.3907,"RA_OF_ASC_NODE":158.8419,"ARG_OF_PERICENTER":263.6729,"MEAN_ANOMALY":96.392,"EPHEMERIS_TYPE":0,"CLASSIFICATION_TYPE":"U","NORAD_CAT_ID":62689,"ELEMENT_SET_NO":999,"REV_AT_EPOCH":6421,"BSTAR":0.0019540727,"MEAN_MOTION_DOT":0.00266017,"MEAN_MOTION_DDOT":0}]
